[{"OBJECT_NAME":"STARLINK-36422","OBJECT_ID":"2026-003L","EPOCH":"2026-03-09T11:16:21.310176","MEAN_MOTION":15.27586691,"ECCENTRICITY":0.000164,"INCLINATION":43.0012,"RA_OF_ASC_NODE":228.0069,"ARG_OF_PERICENTER":256.6879,"MEAN_ANOMALY":103.379,"EPHEMERIS_TYPE":0,"CLASSIFICATION_TYPE":"U","NORAD_CAT_ID":67344,"ELEMENT_SET_NO":999,"REV_AT_EPOCH":879,"BSTAR":0.0011655825,"MEAN_MOTION_DOT":0.00031958,"MEAN_MOTION_DDOT":0},{"OBJECT_NAME":"OBJECT F","OBJECT_ID":"2026-023F","EPOCH":"2026-03-09T17:11:01.401216","MEAN_MOTION":15.23264948,"ECCENTRICITY":0.00223432,"INCLINATION":96.6318,"RA_OF_ASC_NODE":144.1544,"ARG_OF_PERICENTER":121.6413,"MEAN_ANOMALY":238.701,"EPHEMERIS_TYPE":0,"CLASSIFICATION_TYPE":"U","NORAD_CAT_ID":67679,"ELEMENT_SET_NO":999,"REV_AT_EPOCH":484,"BSTAR":0.00053756888,"MEAN_MOTION_DOT":0.00012778,"MEAN_MOTION_DDOT":0}]
